CCSDS_OMM_VERS = 2.0
CREATION_DATE  = 
ORIGINATOR     = 

OBJECT_NAME    = STARLINK-37218
OBJECT_ID      = 2026-063Z
CENTER_NAME    = EARTH
REF_FRAME      = TEME
TIME_SYSTEM    = UTC
MEAN_ELEMENT_THEORY = SGP/SGP4

EPOCH          = 2026-04-02T18:00:02.000160
MEAN_MOTION    = 16.01196804
ECCENTRICITY   = .00016164
INCLINATION    = 97.2814
RA_OF_ASC_NODE = 233.5637
ARG_OF_PERICENTER = 71.1878
MEAN_ANOMALY   = 127.3881

EPHEMERIS_TYPE = 0
CLASSIFICATION_TYPE = U
NORAD_CAT_ID   = 68403
ELEMENT_SET_NO = 999
REV_AT_EPOCH   = 232
BSTAR          = -.34726075E-2
MEAN_MOTION_DOT = -.1865503E-1
MEAN_MOTION_DDOT = .10586923E-2

CCSDS_OMM_VERS = 2.0
CREATION_DATE  = 
ORIGINATOR     = 

OBJECT_NAME    = STARLINK-37188
OBJECT_ID      = 2026-063AA
CENTER_NAME    = EARTH
REF_FRAME      = TEME
TIME_SYSTEM    = UTC
MEAN_ELEMENT_THEORY = SGP/SGP4

EPOCH          = 2026-04-02T18:00:02.000160
MEAN_MOTION    = 16.01065014
ECCENTRICITY   = .00015997
INCLINATION    = 97.2811
RA_OF_ASC_NODE = 233.5623
ARG_OF_PERICENTER = 68.4936
MEAN_ANOMALY   = 127.6824

EPHEMERIS_TYPE = 0
CLASSIFICATION_TYPE = U
NORAD_CAT_ID   = 68404
ELEMENT_SET_NO = 999
REV_AT_EPOCH   = 232
BSTAR          = -.34951711E-2
MEAN_MOTION_DOT = -.1863513E-1
MEAN_MOTION_DDOT = .10549014E-2

CCSDS_OMM_VERS = 2.0
CREATION_DATE  = 
ORIGINATOR     = 

OBJECT_NAME    = SHIYAN-33
OBJECT_ID      = 2026-064A
CENTER_NAME    = EARTH
REF_FRAME      = TEME
TIME_SYSTEM    = UTC
MEAN_ELEMENT_THEORY = SGP/SGP4

EPOCH          = 2026-04-03T16:58:18.041664
MEAN_MOTION    = 15.23216208
ECCENTRICITY   = .0013654
INCLINATION    = 97.4654
RA_OF_ASC_NODE = 169.6174
ARG_OF_PERICENTER = 202.2158
MEAN_ANOMALY   = 157.8489

EPHEMERIS_TYPE = 0
CLASSIFICATION_TYPE = U
NORAD_CAT_ID   = 68405
ELEMENT_SET_NO = 999
REV_AT_EPOCH   = 115
BSTAR          = .40028E-3
MEAN_MOTION_DOT = .9429E-4
MEAN_MOTION_DDOT = 0

CCSDS_OMM_VERS = 2.0
CREATION_DATE  = 
ORIGINATOR     = 

OBJECT_NAME    = LPNTSAT-001 (IOD-1)
OBJECT_ID      = 2026-065A
CENTER_NAME    = EARTH
REF_FRAME      = TEME
TIME_SYSTEM    = UTC
MEAN_ELEMENT_THEORY = SGP/SGP4

EPOCH          = 2026-04-01T04:04:57.158400
MEAN_MOTION    = 15.18233471
ECCENTRICITY   = .0015408
INCLINATION    = 97.4137
RA_OF_ASC_NODE = 333.2788
ARG_OF_PERICENTER = 273.4606
MEAN_ANOMALY   = 86.4866

EPHEMERIS_TYPE = 0
CLASSIFICATION_TYPE = U
NORAD_CAT_ID   = 68408
ELEMENT_SET_NO = 999
REV_AT_EPOCH   = 57
BSTAR          = .23469E-3
MEAN_MOTION_DOT = .475E-4
MEAN_MOTION_DDOT = 0

CCSDS_OMM_VERS = 2.0
CREATION_DATE  = 
ORIGINATOR     = 

OBJECT_NAME    = LPNTSAT-002 (IOD-2)
OBJECT_ID      = 2026-065B
CENTER_NAME    = EARTH
REF_FRAME      = TEME
TIME_SYSTEM    = UTC
MEAN_ELEMENT_THEORY = SGP/SGP4

EPOCH          = 2026-04-02T10:08:21.772608
MEAN_MOTION    = 15.18229138
ECCENTRICITY   = .00127389
INCLINATION    = 97.4055
RA_OF_ASC_NODE = 334.5080
ARG_OF_PERICENTER = 262.3917
MEAN_ANOMALY   = 97.5871

EPHEMERIS_TYPE = 0
CLASSIFICATION_TYPE = U
NORAD_CAT_ID   = 68409
ELEMENT_SET_NO = 999
REV_AT_EPOCH   = 74
BSTAR          = .96695715E-4
MEAN_MOTION_DOT = .1915E-4
MEAN_MOTION_DDOT = 0

CCSDS_OMM_VERS = 2.0
CREATION_DATE  = 
ORIGINATOR     = 

OBJECT_NAME    = ELECTRON R/B
OBJECT_ID      = 2026-065C
CENTER_NAME    = EARTH
REF_FRAME      = TEME
TIME_SYSTEM    = UTC
MEAN_ELEMENT_THEORY = SGP/SGP4

EPOCH          = 2026-04-03T08:51:35.032608
MEAN_MOTION    = 16.33068968
ECCENTRICITY   = .00698542
INCLINATION    = 97.3609
RA_OF_ASC_NODE = 336.1707
ARG_OF_PERICENTER = 198.0172
MEAN_ANOMALY   = 161.8648

EPHEMERIS_TYPE = 0
CLASSIFICATION_TYPE = U
NORAD_CAT_ID   = 68410
ELEMENT_SET_NO = 999
REV_AT_EPOCH   = 88
BSTAR          = .4842293E-3
MEAN_MOTION_DOT = .13281109E+0
MEAN_MOTION_DDOT = .1659494E-5

CCSDS_OMM_VERS = 2.0
CREATION_DATE  = 
ORIGINATOR     = 

OBJECT_NAME    = ELECTRON KICK STAGE R/B
OBJECT_ID      = 2026-065D
CENTER_NAME    = EARTH
REF_FRAME      = TEME
TIME_SYSTEM    = UTC
MEAN_ELEMENT_THEORY = SGP/SGP4

EPOCH          = 2026-04-03T10:37:35.976864
MEAN_MOTION    = 15.83817593
ECCENTRICITY   = .01760393
INCLINATION    = 97.4160
RA_OF_ASC_NODE = 336.0543
ARG_OF_PERICENTER = 10.7329
MEAN_ANOMALY   = 349.7619

EPHEMERIS_TYPE = 0
CLASSIFICATION_TYPE = U
NORAD_CAT_ID   = 68411
ELEMENT_SET_NO = 999
REV_AT_EPOCH   = 96
BSTAR          = .34496954E-3
MEAN_MOTION_DOT = .267226E-2
MEAN_MOTION_DDOT = .2237865E-5

CCSDS_OMM_VERS = 2.0
CREATION_DATE  = 
ORIGINATOR     = 

OBJECT_NAME    = XINZHENGCHENG-01
OBJECT_ID      = 2026-066A
CENTER_NAME    = EARTH
REF_FRAME      = TEME
TIME_SYSTEM    = UTC
MEAN_ELEMENT_THEORY = SGP/SGP4

EPOCH          = 2026-04-02T23:56:28.789152
MEAN_MOTION    = 14.88095472
ECCENTRICITY   = .00234411
INCLINATION    = 84.8508
RA_OF_ASC_NODE = 275.7933
ARG_OF_PERICENTER = 189.3714
MEAN_ANOMALY   = 170.7075

EPHEMERIS_TYPE = 0
CLASSIFICATION_TYPE = U
NORAD_CAT_ID   = 68412
ELEMENT_SET_NO = 999
REV_AT_EPOCH   = 54
BSTAR          = .13573271E-3
MEAN_MOTION_DOT = .1283E-4
MEAN_MOTION_DDOT = 0

CCSDS_OMM_VERS = 2.0
CREATION_DATE  = 
ORIGINATOR     = 

OBJECT_NAME    = LIJIAN-2 R/B
OBJECT_ID      = 2026-066B
CENTER_NAME    = EARTH
REF_FRAME      = TEME
TIME_SYSTEM    = UTC
MEAN_ELEMENT_THEORY = SGP/SGP4

EPOCH          = 2026-03-31T18:24:33.055200
MEAN_MOTION    = 15.04815352
ECCENTRICITY   = .06052317
INCLINATION    = 84.7161
RA_OF_ASC_NODE = 277.0200
ARG_OF_PERICENTER = 206.6432
MEAN_ANOMALY   = 150.2503

EPHEMERIS_TYPE = 0
CLASSIFICATION_TYPE = U
NORAD_CAT_ID   = 68413
ELEMENT_SET_NO = 999
REV_AT_EPOCH   = 20
BSTAR          = .21174642E-3
MEAN_MOTION_DOT = .2524605E-1
MEAN_MOTION_DDOT = -.1158743E-5

CCSDS_OMM_VERS = 2.0
CREATION_DATE  = 
ORIGINATOR     = 

OBJECT_NAME    = 2026-066C
OBJECT_ID      = 2026-066C
CENTER_NAME    = EARTH
REF_FRAME      = TEME
TIME_SYSTEM    = UTC
MEAN_ELEMENT_THEORY = SGP/SGP4

EPOCH          = 2026-04-03T19:18:33.177024
MEAN_MOTION    = 14.90103412
ECCENTRICITY   = .0065547
INCLINATION    = 85.1331
RA_OF_ASC_NODE = 274.8711
ARG_OF_PERICENTER = 46.0550
MEAN_ANOMALY   = 314.6055

EPHEMERIS_TYPE = 0
CLASSIFICATION_TYPE = U
NORAD_CAT_ID   = 68414
ELEMENT_SET_NO = 999
REV_AT_EPOCH   = 66
BSTAR          = .22927E-3
MEAN_MOTION_DOT = .2339E-4
MEAN_MOTION_DDOT = 0

CCSDS_OMM_VERS = 2.0
CREATION_DATE  = 
ORIGINATOR     = 

OBJECT_NAME    = SL-4 R/B
OBJECT_ID      = 2026-061S
CENTER_NAME    = EARTH
REF_FRAME      = TEME
TIME_SYSTEM    = UTC
MEAN_ELEMENT_THEORY = SGP/SGP4

EPOCH          = 2026-04-03T11:34:39.169056
MEAN_MOTION    = 15.91758333
ECCENTRICITY   = .00252295
INCLINATION    = 82.3045
RA_OF_ASC_NODE = 96.5022
ARG_OF_PERICENTER = 30.4387
MEAN_ANOMALY   = 329.8344

EPHEMERIS_TYPE = 0
CLASSIFICATION_TYPE = U
NORAD_CAT_ID   = 68537
ELEMENT_SET_NO = 999
REV_AT_EPOCH   = 171
BSTAR          = .69830667E-3
MEAN_MOTION_DOT = .234077E-2
MEAN_MOTION_DDOT = .18897692E-4

CCSDS_OMM_VERS = 2.0
CREATION_DATE  = 
ORIGINATOR     = 

OBJECT_NAME    = 2026-069B
OBJECT_ID      = 2026-069B
CENTER_NAME    = EARTH
REF_FRAME      = TEME
TIME_SYSTEM    = UTC
MEAN_ELEMENT_THEORY = SGP/SGP4

EPOCH          = 2026-04-02T13:12:59.999616
MEAN_MOTION    = 1.02407762
ECCENTRICITY   = .8430033
INCLINATION    = 28.3448
RA_OF_ASC_NODE = 359.8421
ARG_OF_PERICENTER = 77.7942
MEAN_ANOMALY   = 194.3023

EPHEMERIS_TYPE = 0
CLASSIFICATION_TYPE = U
NORAD_CAT_ID   = 68539
ELEMENT_SET_NO = 999
REV_AT_EPOCH   = 0
BSTAR          = -.71298E-2
MEAN_MOTION_DOT = -.190496E-2
MEAN_MOTION_DDOT = .11727E-5

